[
  {
    "COMMENT": "GENERATED VIA SPACETRACK.ORG API",
    "ORIGINATOR": "18 SPCS",
    "NORAD_CAT_ID": "43437",
    "OBJECT_NAME": "SENTINEL 3B",
    "OBJECT_TYPE": "PAYLOAD",
    "CLASSIFICATION_TYPE": "U",
    "INTLDES": "18039A",
    "EPOCH": "2023-08-25 04:58:48",
    "EPOCH_MICROSECONDS": "316224",
    "MEAN_MOTION": "14.26740888",
    "ECCENTRICITY": "0.0001344",
    "INCLINATION": "98.6231",
    "RA_OF_ASC_NODE": "303.3339",
    "ARG_OF_PERICENTER": "85.9116",
    "MEAN_ANOMALY": "274.2218",
    "EPHEMERIS_TYPE": "0",
    "ELEMENT_SET_NO": "999",
    "REV_AT_EPOCH": "27768",
    "BSTAR": "0.00007533",
    "MEAN_MOTION_DOT": "0.00000139",
    "MEAN_MOTION_DDOT": "0",
    "FILE": "3988765",
    "TLE_LINE0": "0 SENTINEL 3B",
    "TLE_LINE1": "1 43437U 18039A   23237.20750366  .00000139  00000-0  75330-4 0  9993",
    "TLE_LINE2": "2 43437  98.6231 303.3339 0001344  85.9116 274.2218 14.26740888277682",
    "OBJECT_ID": "2018-039A",
    "OBJECT_NUMBER": "43437",
    "SEMIMAJOR_AXIS": "7180.782",
    "PERIOD": "100.929",
    "APOGEE": "803.613",
    "PERIGEE": "801.682",
    "DECAYED": "0"
  },
  {
    "COMMENT": "GENERATED VIA SPACETRACK.ORG API",
    "ORIGINATOR": "18 SPCS",
    "NORAD_CAT_ID": "43437",
    "OBJECT_NAME": "SENTINEL 3B",
    "OBJECT_TYPE": "PAYLOAD",
    "CLASSIFICATION_TYPE": "U",
    "INTLDES": "18039A",
    "EPOCH": "2023-08-25 18:26:41",
    "EPOCH_MICROSECONDS": "946720",
    "MEAN_MOTION": "14.26741138",
    "ECCENTRICITY": "0.0001348",
    "INCLINATION": "98.623",
    "RA_OF_ASC_NODE": "303.8867",
    "ARG_OF_PERICENTER": "85.8552",
    "MEAN_ANOMALY": "274.2782",
    "EPHEMERIS_TYPE": "0",
    "ELEMENT_SET_NO": "999",
    "REV_AT_EPOCH": "27776",
    "BSTAR": "0.000079291",
    "MEAN_MOTION_DOT": "0.00000148",
    "MEAN_MOTION_DDOT": "0",
    "FILE": "3989051",
    "TLE_LINE0": "0 SENTINEL 3B",
    "TLE_LINE1": "1 43437U 18039A   23237.76854105  .00000148  00000-0  79291-4 0  9990",
    "TLE_LINE2": "2 43437  98.6230 303.8867 0001348  85.8552 274.2782 14.26741138277763",
    "OBJECT_ID": "2018-039A",
    "OBJECT_NUMBER": "43437",
    "SEMIMAJOR_AXIS": "7180.782",
    "PERIOD": "100.929",
    "APOGEE": "803.615",
    "PERIGEE": "801.679",
    "DECAYED": "0"
  },
  {
    "COMMENT": "GENERATED VIA SPACETRACK.ORG API",
    "ORIGINATOR": "18 SPCS",
    "NORAD_CAT_ID": "43437",
    "OBJECT_NAME": "SENTINEL 3B",
    "OBJECT_TYPE": "PAYLOAD",
    "CLASSIFICATION_TYPE": "U",
    "INTLDES": "18039A",
    "EPOCH": "2023-08-26 04:32:37",
    "EPOCH_MICROSECONDS": "161600",
    "MEAN_MOTION": "14.26741318",
    "ECCENTRICITY": "0.0001335",
    "INCLINATION": "98.623",
    "RA_OF_ASC_NODE": "304.3013",
    "ARG_OF_PERICENTER": "86.0583",
    "MEAN_ANOMALY": "274.075",
    "EPHEMERIS_TYPE": "0",
    "ELEMENT_SET_NO": "999",
    "REV_AT_EPOCH": "27782",
    "BSTAR": "0.000081312",
    "MEAN_MOTION_DOT": "0.00000153",
    "MEAN_MOTION_DDOT": "0",
    "FILE": "3989320",
    "TLE_LINE0": "0 SENTINEL 3B",
    "TLE_LINE1": "1 43437U 18039A   23238.18931900  .00000153  00000-0  81312-4 0  9999",
    "TLE_LINE2": "2 43437  98.6230 304.3013 0001335  86.0583 274.0750 14.26741318277825",
    "OBJECT_ID": "2018-039A",
    "OBJECT_NUMBER": "43437",
    "SEMIMAJOR_AXIS": "7180.781",
    "PERIOD": "100.929",
    "APOGEE": "803.605",
    "PERIGEE": "801.687",
    "DECAYED": "0"
  },
  {
    "COMMENT": "GENERATED VIA SPACETRACK.ORG API",
    "ORIGINATOR": "18 SPCS",
    "NORAD_CAT_ID": "43437",
    "OBJECT_NAME": "SENTINEL 3B",
    "OBJECT_TYPE": "PAYLOAD",
    "CLASSIFICATION_TYPE": "U",
    "INTLDES": "18039A",
    "EPOCH": "2023-08-26 04:32:37",
    "EPOCH_MICROSECONDS": "161600",
    "MEAN_MOTION": "14.26741318",
    "ECCENTRICITY": "0.0001335",
    "INCLINATION": "98.623",
    "RA_OF_ASC_NODE": "304.3013",
    "ARG_OF_PERICENTER": "86.0583",
    "MEAN_ANOMALY": "274.075",
    "EPHEMERIS_TYPE": "0",
    "ELEMENT_SET_NO": "999",
    "REV_AT_EPOCH": "27782",
    "BSTAR": "0.000081312",
    "MEAN_MOTION_DOT": "0.00000153",
    "MEAN_MOTION_DDOT": "0",
    "FILE": "3989608",
    "TLE_LINE0": "0 SENTINEL 3B",
    "TLE_LINE1": "1 43437U 18039A   23238.18931900  .00000153  00000-0  81312-4 0  9999",
    "TLE_LINE2": "2 43437  98.6230 304.3013 0001335  86.0583 274.0750 14.26741318277825",
    "OBJECT_ID": "2018-039A",
    "OBJECT_NUMBER": "43437",
    "SEMIMAJOR_AXIS": "7180.781",
    "PERIOD": "100.929",
    "APOGEE": "803.605",
    "PERIGEE": "801.687",
    "DECAYED": "0"
  },
  {
    "COMMENT": "GENERATED VIA SPACETRACK.ORG API",
    "ORIGINATOR": "18 SPCS",
    "NORAD_CAT_ID": "43437",
    "OBJECT_NAME": "SENTINEL 3B",
    "OBJECT_TYPE": "PAYLOAD",
    "CLASSIFICATION_TYPE": "U",
    "INTLDES": "18039A",
    "EPOCH": "2023-08-26 19:41:29",
    "EPOCH_MICROSECONDS": "976576",
    "MEAN_MOTION": "14.26741544",
    "ECCENTRICITY": "0.0001328",
    "INCLINATION": "98.6229",
    "RA_OF_ASC_NODE": "304.9232",
    "ARG_OF_PERICENTER": "85.9578",
    "MEAN_ANOMALY": "274.1754",
    "EPHEMERIS_TYPE": "0",
    "ELEMENT_SET_NO": "999",
    "REV_AT_EPOCH": "27791",
    "BSTAR": "0.00008072",
    "MEAN_MOTION_DOT": "0.00000152",
    "MEAN_MOTION_DDOT": "0",
    "FILE": "3989878",
    "TLE_LINE0": "0 SENTINEL 3B",
    "TLE_LINE1": "1 43437U 18039A   23238.82048584  .00000152  00000-0  80720-4 0  9998",
    "TLE_LINE2": "2 43437  98.6229 304.9232 0001328  85.9578 274.1754 14.26741544277912",
    "OBJECT_ID": "2018-039A",
    "OBJECT_NUMBER": "43437",
    "SEMIMAJOR_AXIS": "7180.780",
    "PERIOD": "100.929",
    "APOGEE": "803.599",
    "PERIGEE": "801.692",
    "DECAYED": "0"
  },
  {
    "COMMENT": "GENERATED VIA SPACETRACK.ORG API",
    "ORIGINATOR": "18 SPCS",
    "NORAD_CAT_ID": "43437",
    "OBJECT_NAME": "SENTINEL 3B",
    "OBJECT_TYPE": "PAYLOAD",
    "CLASSIFICATION_TYPE": "U",
    "INTLDES": "18039A",
    "EPOCH": "2023-08-27 04:06:25",
    "EPOCH_MICROSECONDS": "985376",
    "MEAN_MOTION": "14.2674166",
    "ECCENTRICITY": "0.0001326",
    "INCLINATION": "98.6228",
    "RA_OF_ASC_NODE": "305.2687",
    "ARG_OF_PERICENTER": "85.665",
    "MEAN_ANOMALY": "274.4682",
    "EPHEMERIS_TYPE": "0",
    "ELEMENT_SET_NO": "999",
    "REV_AT_EPOCH": "27796",
    "BSTAR": "0.000079401",
    "MEAN_MOTION_DOT": "0.00000149",
    "MEAN_MOTION_DDOT": "0",
    "FILE": "3990390",
    "TLE_LINE0": "0 SENTINEL 3B",
    "TLE_LINE1": "1 43437U 18039A   23239.17113409  .00000149  00000-0  79401-4 0  9996",
    "TLE_LINE2": "2 43437  98.6228 305.2687 0001326  85.6650 274.4682 14.26741660277962",
    "OBJECT_ID": "2018-039A",
    "OBJECT_NUMBER": "43437",
    "SEMIMAJOR_AXIS": "7180.780",
    "PERIOD": "100.929",
    "APOGEE": "803.597",
    "PERIGEE": "801.693",
    "DECAYED": "0"
  },
  {
    "COMMENT": "GENERATED VIA SPACETRACK.ORG API",
    "ORIGINATOR": "18 SPCS",
    "NORAD_CAT_ID": "43437",
    "OBJECT_NAME": "SENTINEL 3B",
    "OBJECT_TYPE": "PAYLOAD",
    "CLASSIFICATION_TYPE": "U",
    "INTLDES": "18039A",
    "EPOCH": "2023-08-27 17:34:19",
    "EPOCH_MICROSECONDS": "590816",
    "MEAN_MOTION": "14.26741861",
    "ECCENTRICITY": "0.0001322",
    "INCLINATION": "98.6228",
    "RA_OF_ASC_NODE": "305.8215",
    "ARG_OF_PERICENTER": "85.3524",
    "MEAN_ANOMALY": "274.7807",
    "EPHEMERIS_TYPE": "0",
    "ELEMENT_SET_NO": "999",
    "REV_AT_EPOCH": "27804",
    "BSTAR": "0.000078108",
    "MEAN_MOTION_DOT": "0.00000145",
    "MEAN_MOTION_DDOT": "0",
    "FILE": "3990493",
    "TLE_LINE0": "0 SENTINEL 3B",
    "TLE_LINE1": "1 43437U 18039A   23239.73217119  .00000145  00000-0  78108-4 0  9990",
    "TLE_LINE2": "2 43437  98.6228 305.8215 0001322  85.3524 274.7807 14.26741861278043",
    "OBJECT_ID": "2018-039A",
    "OBJECT_NUMBER": "43437",
    "SEMIMAJOR_AXIS": "7180.779",
    "PERIOD": "100.929",
    "APOGEE": "803.593",
    "PERIGEE": "801.695",
    "DECAYED": "0"
  },
  {
    "COMMENT": "GENERATED VIA SPACETRACK.ORG API",
    "ORIGINATOR": "18 SPCS",
    "NORAD_CAT_ID": "43437",
    "OBJECT_NAME": "SENTINEL 3B",
    "OBJECT_TYPE": "PAYLOAD",
    "CLASSIFICATION_TYPE": "U",
    "INTLDES": "18039A",
    "EPOCH": "2023-08-27 19:15:18",
    "EPOCH_MICROSECONDS": "792576",
    "MEAN_MOTION": "14.26741836",
    "ECCENTRICITY": "0.000132",
    "INCLINATION": "98.6228",
    "RA_OF_ASC_NODE": "305.8906",
    "ARG_OF_PERICENTER": "85.3429",
    "MEAN_ANOMALY": "274.7902",
    "EPHEMERIS_TYPE": "0",
    "ELEMENT_SET_NO": "999",
    "REV_AT_EPOCH": "27805",
    "BSTAR": "0.000075272",
    "MEAN_MOTION_DOT": "0.00000139",
    "MEAN_MOTION_DDOT": "0",
    "FILE": "3990698",
    "TLE_LINE0": "0 SENTINEL 3B",
    "TLE_LINE1": "1 43437U 18039A   23239.80230084  .00000139  00000-0  75272-4 0  9996",
    "TLE_LINE2": "2 43437  98.6228 305.8906 0001320  85.3429 274.7902 14.26741836278051",
    "OBJECT_ID": "2018-039A",
    "OBJECT_NUMBER": "43437",
    "SEMIMAJOR_AXIS": "7180.779",
    "PERIOD": "100.929",
    "APOGEE": "803.592",
    "PERIGEE": "801.696",
    "DECAYED": "0"
  }
]